NORAD_CAT_ID,OBJECT_NAME,OBJECT_TYPE,EPOCH,MEAN_MOTION,ECCENTRICITY,INCLINATION,RA_OF_ASC_NODE,ARG_OF_PERICENTER,MEAN_ANOMALY,BSTAR,MEAN_MOTION_DOT,MEAN_MOTION_DDOT,TLE_LINE0,TLE_LINE1,TLE_LINE2,SEMIMAJOR_AXIS,PERIOD,APOGEE,PERIGEE,DECAYED
53908.0,STARLINK-5057,PAYLOAD,2024-04-19 12:47:50,15.08852241,0.0001599,53.2172,168.0069,86.8929,273.2246,0.0012328,0.00019393,0.0,0 STARLINK-5057,1 53908U 22119Y   24110.53322513  .00019393  00000-0  12328-2 0  9995,2 53908  53.2172 168.0069 0001599  86.8929 273.2246 15.08852241 87369,6917.843,95.437,540.814,538.602,0.0
53908.0,STARLINK-5057,PAYLOAD,2024-04-20 12:38:35,15.08889149,0.0001883,53.2171,163.5434,72.9604,287.1594,0.00091855,0.00014381,0.0,0 STARLINK-5057,1 53908U 22119Y   24111.52680269  .00014381  00000-0  91855-3 0  9995,2 53908  53.2171 163.5434 0001883  72.9604 287.1594 15.08889149 87936,6917.73,95.434,540.898,538.293,0.0
53908.0,STARLINK-5057,PAYLOAD,2024-04-21 02:57:04,15.08839947,0.0002807,53.217,160.8685,73.4135,286.7165,-0.00040926,-6.797e-05,0.0,0 STARLINK-5057,1 53908U 22119Y   24112.12297176 -.00006797  00000-0 -40926-3 0  9990,2 53908  53.2170 160.8685 0002807  73.4135 286.7165 15.08839947 87609,6917.881,95.438,541.687,537.804,0.0
53908.0,STARLINK-5057,PAYLOAD,2024-04-21 12:29:23,15.08831541,0.0001678,53.2174,159.0802,90.8973,269.2211,0.00014603,2.036e-05,0.0,0 STARLINK-5057,1 53908U 22119Y   24112.52041500  .00002036  00000-0  14603-3 0  9995,2 53908  53.2174 159.0802 0001678  90.8973 269.2211 15.08831541 88085,6917.906,95.438,540.932,538.61,0.0
53908.0,STARLINK-5057,PAYLOAD,2024-04-22 02:47:52,15.08828851,0.0001758,53.2165,156.4042,91.3207,268.7986,0.00060141,9.293e-05,0.0,0 STARLINK-5057,1 53908U 22119Y   24113.11658416  .00009293  00000-0  60141-3 0  9991,2 53908  53.2165 156.4042 0001758  91.3207 268.7986 15.08828851 87753,6917.914,95.438,540.996,538.563,0.0
53908.0,STARLINK-5057,PAYLOAD,2024-04-22 09:09:25,15.08841605,0.000208,53.2154,155.2165,78.3485,281.7741,0.00083476,0.00013023,0.0,0 STARLINK-5057,1 53908U 22119Y   24113.38154431  .00013023  00000-0  83476-3 0  9990,2 53908  53.2154 155.2165 0002080  78.3485 281.7741 15.08841605 88214,6917.875,95.437,541.179,538.302,0.0
53908.0,STARLINK-5057,PAYLOAD,2024-04-22 12:20:11,15.08849812,0.0002048,53.2154,154.6204,81.7615,278.3609,0.00099778,0.00015632,0.0,0 STARLINK-5057,1 53908U 22119Y   24113.51402240  .00015632  00000-0  99778-3 0  9999,2 53908  53.2154 154.6204 0002048  81.7615 278.3609 15.08849812 87816,6917.85,95.437,541.132,538.299,0.0
53908.0,STARLINK-5057,PAYLOAD,2024-04-23 09:00:12,15.0883782,0.0002024,53.2164,150.7489,102.9275,257.1943,0.00024401,3.597e-05,0.0,0 STARLINK-5057,1 53908U 22119Y   24114.37514686  .00003597  00000-0  24401-3 0  9990,2 53908  53.2164 150.7489 0002024 102.9275 257.1943 15.08837820 87947,6917.887,95.438,541.152,538.352,0.0
53908.0,STARLINK-5057,PAYLOAD,2024-04-24 12:01:46,15.08844994,0.0002246,53.2161,145.6984,101.1219,259.0026,0.00025575,3.785e-05,0.0,0 STARLINK-5057,1 53908U 22119Y   24115.50122780  .00003785  00000-0  25575-3 0  9998,2 53908  53.2161 145.6984 0002246 101.1219 259.0026 15.08844994 88115,6917.865,95.437,541.284,538.176,0.0
53908.0,STARLINK-5057,PAYLOAD,2024-04-25 05:31:00,15.08842152,0.0002309,53.2152,142.4261,112.364,247.7597,0.0001398,1.937e-05,0.0,0 STARLINK-5057,1 53908U 22119Y   24116.22986840  .00001937  00000-0  13980-3 0  9997,2 53908  53.2152 142.4261 0002309 112.3640 247.7597 15.08842152 88223,6917.874,95.437,541.336,538.141,0.0
53908.0,STARLINK-5057,PAYLOAD,2024-04-25 08:41:46,15.08843107,0.0002208,53.2158,141.8315,106.7113,253.4122,0.00015926,2.248e-05,0.0,0 STARLINK-5057,1 53908U 22119Y   24116.36234818  .00002248  00000-0  15926-3 0  9991,2 53908  53.2158 141.8315 0002208 106.7113 253.4122 15.08843107 88669,6917.871,95.437,541.263,538.208,0.0
53908.0,STARLINK-5057,PAYLOAD,2024-04-26 08:32:33,15.08841844,0.0002134,53.2162,137.376,101.5515,258.5717,5.8813e-05,6.48e-06,0.0,0 STARLINK-5057,1 53908U 22119Y   24117.35594850  .00000648  00000-0  58813-4 0  9991,2 53908  53.2162 137.3760 0002134 101.5515 258.5717 15.08841844 88397,6917.875,95.437,541.216,538.263,0.0
53908.0,STARLINK-5057,PAYLOAD,2024-04-27 09:58:43,15.08847023,0.0001992,53.216,132.6182,93.8297,266.2923,0.00011105,1.48e-05,0.0,0 STARLINK-5057,1 53908U 22119Y   24118.41578521  .00001480  00000-0  11105-3 0  9993,2 53908  53.2160 132.6182 0001992  93.8297 266.2923 15.08847023 88550,6917.859,95.437,541.102,538.346,0.0
53908.0,STARLINK-5057,PAYLOAD,2024-04-27 17:55:40,15.08823171,0.0001923,53.2157,131.1308,92.6833,267.4379,-0.00019272,-3.353e-05,0.0,0 STARLINK-5057,1 53908U 22119Y   24118.74699877 -.00003353  00000-0 -19272-3 0  9993,2 53908  53.2157 131.1308 0001923  92.6833 267.4379 15.08823171 88609,6917.932,95.439,541.127,538.467,0.0
53908.0,STARLINK-5057,PAYLOAD,2024-04-28 09:49:32,15.08829777,0.0001982,53.2156,128.1564,91.584,268.5379,-1.6554e-05,-5.52e-06,0.0,0 STARLINK-5057,1 53908U 22119Y   24119.40940156 -.00000552  00000-0 -16554-4 0  9995,2 53908  53.2156 128.1564 0001982  91.5840 268.5379 15.08829777 88700,6917.912,95.438,541.148,538.406,0.0
53908.0,STARLINK-5057,PAYLOAD,2024-04-28 17:46:28,15.08831794,0.0001956,53.2156,126.6694,91.8082,268.3134,3.1318e-05,2.1e-06,0.0,0 STARLINK-5057,1 53908U 22119Y   24119.74060263  .00000210  00000-0  31318-4 0  9998,2 53908  53.2156 126.6694 0001956  91.8082 268.3134 15.08831794 89170,6917.905,95.438,541.124,538.417,0.0
53908.0,STARLINK-5057,PAYLOAD,2024-04-29 08:04:56,15.08838233,0.0001975,53.2155,123.9926,92.8183,267.3035,0.00025073,3.704e-05,0.0,0 STARLINK-5057,1 53908U 22119Y   24120.33676426  .00003704  00000-0  25073-3 0  9990,2 53908  53.2155 123.9926 0001975  92.8183 267.3035 15.08838233 89265,6917.886,95.438,541.117,538.385,0.0
53908.0,STARLINK-5057,PAYLOAD,2024-04-29 17:37:15,15.08844071,0.0001966,53.2155,122.2086,95.7787,264.3429,0.00039161,5.951e-05,0.0,0 STARLINK-5057,1 53908U 22119Y   24120.73420405  .00005951  00000-0  39161-3 0  9997,2 53908  53.2155 122.2086 0001966  95.7787 264.3429 15.08844071 88907,6917.868,95.437,541.093,538.373,0.0
53908.0,STARLINK-5057,PAYLOAD,2024-04-30 06:20:19,15.08855782,0.0002016,53.2154,119.8297,93.6799,266.4423,0.00051886,7.983e-05,0.0,0 STARLINK-5057,1 53908U 22119Y   24121.26411991  .00007983  00000-0  51886-3 0  9991,2 53908  53.2154 119.8297 0002016  93.6799 266.4423 15.08855782 89403,6917.832,95.437,541.092,538.303,0.0
53908.0,STARLINK-5057,PAYLOAD,2024-04-30 17:28:01,15.08852399,0.0001983,53.2152,117.7483,92.6628,267.4591,0.00026951,4.005e-05,0.0,0 STARLINK-5057,1 53908U 22119Y   24121.72779790  .00004005  00000-0  26951-3 0  9993,2 53908  53.2152 117.7483 0001983  92.6628 267.4591 15.08852399 89472,6917.842,95.437,541.079,538.336,0.0
53908.0,STARLINK-5057,PAYLOAD,2024-05-01 04:35:43,15.08851589,0.0002004,53.2155,115.6669,93.7301,266.392,0.00021826,3.188e-05,0.0,0 STARLINK-5057,1 53908U 22119Y   24122.19147655  .00003188  00000-0  21826-3 0  9991,2 53908  53.2155 115.6669 0002004  93.7301 266.3920 15.08851589 89129,6917.845,95.437,541.096,538.324,0.0
53908.0,STARLINK-5057,PAYLOAD,2024-05-01 09:21:52,15.08853395,0.0001996,53.2153,114.7753,90.9199,269.2022,0.00021537,3.142e-05,0.0,0 STARLINK-5057,1 53908U 22119Y   24122.39019453  .00003142  00000-0  21537-3 0  9996,2 53908  53.2153 114.7753 0001996  90.9199 269.2022 15.08853395 89575,6917.839,95.437,541.085,538.324,0.0
53908.0,STARLINK-5057,PAYLOAD,2024-05-02 06:01:53,15.08847632,0.0002114,53.2159,110.9085,95.0466,265.0768,3.1129e-05,2.07e-06,0.0,0 STARLINK-5057,1 53908U 22119Y   24123.25131288  .00000207  00000-0  31129-4 0  9991,2 53908  53.2159 110.9085 0002114  95.0466 265.0768 15.08847632 89289,6917.857,95.437,541.184,538.26,0.0
53908.0,STARLINK-5057,PAYLOAD,2024-05-02 09:12:39,15.08847567,0.0002086,53.2158,110.3136,94.256,265.867,6.3657e-06,-1.87e-06,0.0,0 STARLINK-5057,1 53908U 22119Y   24123.38379220 -.00000187  00000-0  63657-5 0  9995,2 53908  53.2158 110.3136 0002086  94.2560 265.8670 15.08847567 89729,6917.857,95.437,541.165,538.279,0.0
53908.0,STARLINK-5057,PAYLOAD,2024-05-03 05:52:40,15.0884361,0.0001937,53.2161,106.4483,95.9652,264.1561,7.1958e-05,8.57e-06,0.0,0 STARLINK-5057,1 53908U 22119Y   24124.24491322  .00000857  00000-0  71958-4 0  9994,2 53908  53.2161 106.4483 0001937  95.9652 264.1561 15.08843610 89432,6917.869,95.437,541.074,538.394,0.0
53908.0,STARLINK-5057,PAYLOAD,2024-05-03 09:03:26,15.0884549,0.0001926,53.2161,105.8534,95.0517,265.0695,6.3182e-05,7.18e-06,0.0,0 STARLINK-5057,1 53908U 22119Y   24124.37739198  .00000718  00000-0  63182-4 0  9990,2 53908  53.2161 105.8534 0001926  95.0517 265.0695 15.08845490 89875,6917.864,95.437,541.061,538.396,0.0
53908.0,STARLINK-5057,PAYLOAD,2024-05-03 15:24:59,15.08839468,0.0001788,53.2155,104.6652,94.8136,265.3061,4.03e-05,3.53e-06,0.0,0 STARLINK-5057,1 53908U 22119Y   24124.64235644  .00000353  00000-0  40300-4 0  9999,2 53908  53.2155 104.6652 0001788  94.8136 265.3061 15.08839468 89919,6917.882,95.438,540.984,538.51,0.0
53908.0,STARLINK-5057,PAYLOAD,2024-05-04 05:43:28,15.08826918,0.000193,53.2165,101.9884,96.914,263.2072,-4.3079e-05,-9.73e-06,0.0,0 STARLINK-5057,1 53908U 22119Y   24125.23852972 -.00000973  00000-0 -43079-4 0  9990,2 53908  53.2165 101.9884 0001930  96.9140 263.2072 15.08826918 89582,6917.92,95.438,541.121,538.45,0.0
53908.0,STARLINK-5057,PAYLOAD,2024-05-04 15:15:44,15.08870288,0.0001263,53.2164,100.2034,99.3841,260.7294,0.00032024,4.817e-05,0.0,0 STARLINK-5057,1 53908U 22119Y   24125.63592838  .00004817  00000-0  32024-3 0  9992,2 53908  53.2164 100.2034 0001263  99.3841 260.7294 15.08870288 89648,6917.788,95.436,540.527,538.779,0.0
53908.0,STARLINK-5057,PAYLOAD,2024-05-05 03:58:50,15.0885464,0.0001301,53.2159,97.8233,98.4389,261.6751,0.00014486,2.019e-05,0.0,0 STARLINK-5057,1 53908U 22119Y   24126.16585916  .00002019  00000-0  14486-3 0  9994,2 53908  53.2159  97.8233 0001301  98.4389 261.6751 15.08854640 89725,6917.836,95.437,540.601,538.801,0.0
